{
"type": "FeatureCollection",
"name": "block_origins",
"crs": { "type": "name", "properties": { "name": "urn:ogc:def:crs:EPSG::32652" } },
"features": [
{"type":"Feature","properties":{"block_id":"MR-1"},"geometry":{"type":"Point","coordinates":[734663.190796323819086,4776055.243164255283773]}},
{"type":"Feature","properties":{"block_id":"MR-2"},"geometry":{"type":"Point","coordinates":[734746.863886524457484,4776116.577692655846477]}},
{"type":"Feature","properties":{"block_id":"PR"},"geometry":{"type":"Point","coordinates":[734677.510703984065913,4776019.553272137418389]}},
{"type":"Feature","properties":{"block_id":"BR"},"geometry":{"type":"Point","coordinates":[734745.824345315806568,4776019.288612969219685]}},
{"type":"Feature","properties":{"block_id":"O-2"},"geometry":{"type":"Point","coordinates":[734930.093753672786988,4776095.938144918531179]}},
{"type":"Feature","properties":{"block_id":"O-1"},"geometry":{"type":"Point","coordinates":[734922.679122785339132,4776104.224950389005244]}},
{"type":"Feature","properties":{"block_id":"LM"},"geometry":{"type":"Point","coordinates":[735032.199553903657943,4776290.623635577969253]}},
{"type":"Feature","properties":{"block_id":"L"},"geometry":{"type":"Point","coordinates":[735211.267182829789817,4776335.314215449616313]}},
{"type":"Feature","properties":{"block_id":"C1"},"geometry":{"type":"Point","coordinates":[734393.059127139043994,4774952.506976657547057]}},
{"type":"Feature","properties":{"block_id":"C2"},"geometry":{"type":"Point","coordinates":[734409.414917176938616,4775000.04148287884891]}},
{"type":"Feature","properties":{"block_id":"B"},"geometry":{"type":"Point","coordinates":[734449.525427357060835,4774935.215859047137201]}},
{"type":"Feature","properties":{"block_id":"A1"},"geometry":{"type":"Point","coordinates":[734500.689951423788443,4774926.252730743028224]}},
{"type":"Feature","properties":{"block_id":"A2"},"geometry":{"type":"Point","coordinates":[734508.3459568497492,4774950.154406218789518]}},
{"type":"Feature","properties":{"block_id":"A3"},"geometry":{"type":"Point","coordinates":[734523.512684038840234,4774984.040158006362617]}},
{"type":"Feature","properties":{"block_id":"C3"},"geometry":{"type":"Point","coordinates":[734444.711027089622803,4775103.809513271786273]}},
{"type":"Feature","properties":{"block_id":"F"},"geometry":{"type":"Point","coordinates":[734531.734119767090306,4775202.429121601395309]}},
{"type":"Feature","properties":{"block_id":"P"},"geometry":{"type":"Point","coordinates":[734547.232862458913587,4775210.832054385915399]}},
{"type":"Feature","properties":{"block_id":"T1"},"geometry":{"type":"Point","coordinates":[734568.753706979681738,4775283.097276333719492]}},
{"type":"Feature","properties":{"block_id":"E2"},"geometry":{"type":"Point","coordinates":[734620.711841364973225,4775307.811235314235091]}},
{"type":"Feature","properties":{"block_id":"E1"},"geometry":{"type":"Point","coordinates":[734626.143369512399659,4775321.780913309194148]}},
{"type":"Feature","properties":{"block_id":"X"},"geometry":{"type":"Point","coordinates":[734629.740325812366791,4775334.149761297740042]}},
{"type":"Feature","properties":{"block_id":"R1"},"geometry":{"type":"Point","coordinates":[734676.126077032764442,4775305.773919870145619]}},
{"type":"Feature","properties":{"block_id":"T2"},"geometry":{"type":"Point","coordinates":[734593.775773494038731,4775361.337917151860893]}},
{"type":"Feature","properties":{"block_id":"R"},"geometry":{"type":"Point","coordinates":[734697.990813207696192,4775350.208699507638812]}},
{"type":"Feature","properties":{"block_id":"T3"},"geometry":{"type":"Point","coordinates":[734628.134431991376914,4775467.588333918713033]}},
{"type":"Feature","properties":{"block_id":"T4"},"geometry":{"type":"Point","coordinates":[734650.355520910816267,4775534.625064358115196]}},
{"type":"Feature","properties":{"block_id":"R2"},"geometry":{"type":"Point","coordinates":[734768.528765639173798,4775580.635789649561048]}},
{"type":"Feature","properties":{"block_id":"Q"},"geometry":{"type":"Point","coordinates":[734700.399653939297423,4775611.558582296594977]}},
{"type":"Feature","properties":{"block_id":"RF-2"},"geometry":{"type":"Point","coordinates":[734760.153842630330473,4775658.615005890838802]}},
{"type":"Feature","properties":{"block_id":"S"},"geometry":{"type":"Point","coordinates":[734715.338201112113893,4775663.096570041961968]}},
{"type":"Feature","properties":{"block_id":"Y"},"geometry":{"type":"Point","coordinates":[734660.065576572902501,4775744.511652135290205]}},
{"type":"Feature","properties":{"block_id":"J"},"geometry":{"type":"Point","coordinates":[734678.447602185537107,4775754.803000822663307]}},
{"type":"Feature","properties":{"block_id":"RF-1"},"geometry":{"type":"Point","coordinates":[734748.389736731885932,4775719.676317459903657]}},
{"type":"Feature","properties":{"block_id":"N"},"geometry":{"type":"Point","coordinates":[734606.411821754998527,4775805.749736514873803]}}
]
}
