{
"type": "FeatureCollection",
"name": "block_axes",
"crs": { "type": "name", "properties": { "name": "urn:ogc:def:crs:EPSG::32652" } },
"xy_coordinate_resolution": 0.01,
"features": [
{"type":"Feature","properties":{"block_id":"L"},"geometry":{"type":"LineString","coordinates":[[735211.27,4776335.31],[735239.27,4776364.72]]}},
{"type":"Feature","properties":{"block_id":"LM"},"geometry":{"type":"LineString","coordinates":[[735032.2,4776290.62],[735065.21,4776319.27]]}},
{"type":"Feature","properties":{"block_id":"O-1"},"geometry":{"type":"LineString","coordinates":[[734922.68,4776104.22],[735194.87,4776332.56]]}},
{"type":"Feature","properties":{"block_id":"O-2"},"geometry":{"type":"LineString","coordinates":[[734930.09,4776095.94],[735202.23,4776323.69]]}},
{"type":"Feature","properties":{"block_id":"MR-2"},"geometry":{"type":"LineString","coordinates":[[734746.86,4776116.58],[734762.91,4776128.33]]}},
{"type":"Feature","properties":{"block_id":"MR-1"},"geometry":{"type":"LineString","coordinates":[[734663.19,4776055.24],[734678.87,4776067.05]]}},
{"type":"Feature","properties":{"block_id":"PR"},"geometry":{"type":"LineString","coordinates":[[734677.51,4776019.55],[734785.95,4776098.89]]}},
{"type":"Feature","properties":{"block_id":"BR"},"geometry":{"type":"LineString","coordinates":[[734745.82,4776019.29],[734812.39,4776071.04]]}},
{"type":"Feature","properties":{"block_id":"N"},"geometry":{"type":"LineString","coordinates":[[734606.41,4775805.75],[734576.47,4775802.68]]}},
{"type":"Feature","properties":{"block_id":"J"},"geometry":{"type":"LineString","coordinates":[[734678.45,4775754.8],[734666.5,4775753.5]]}},
{"type":"Feature","properties":{"block_id":"Y"},"geometry":{"type":"LineString","coordinates":[[734660.07,4775744.51],[734643.61,4775794.75]]}},
{"type":"Feature","properties":{"block_id":"RF-1"},"geometry":{"type":"LineString","coordinates":[[734748.39,4775719.68],[734734.76,4775812.48]]}},
{"type":"Feature","properties":{"block_id":"S"},"geometry":{"type":"LineString","coordinates":[[734715.34,4775663.1],[734689.94,4775745.82]]}},
{"type":"Feature","properties":{"block_id":"RF-2"},"geometry":{"type":"LineString","coordinates":[[734760.15,4775658.62],[734753.24,4775702.68]]}},
{"type":"Feature","properties":{"block_id":"Q"},"geometry":{"type":"LineString","coordinates":[[734700.4,4775611.56],[734661.0,4775734.99]]}},
{"type":"Feature","properties":{"block_id":"R2"},"geometry":{"type":"LineString","coordinates":[[734768.53,4775580.64],[734765.17,4775643.75]]}},
{"type":"Feature","properties":{"block_id":"T4"},"geometry":{"type":"LineString","coordinates":[[734650.36,4775534.63],[734659.88,4775567.3]]}},
{"type":"Feature","properties":{"block_id":"T3"},"geometry":{"type":"LineString","coordinates":[[734628.13,4775467.59],[734640.09,4775505.12]]}},
{"type":"Feature","properties":{"block_id":"T2"},"geometry":{"type":"LineString","coordinates":[[734593.78,4775361.34],[734617.86,4775437.71]]}},
{"type":"Feature","properties":{"block_id":"T1"},"geometry":{"type":"LineString","coordinates":[[734568.75,4775283.1],[734584.25,4775332.21]]}},
{"type":"Feature","properties":{"block_id":"X"},"geometry":{"type":"LineString","coordinates":[[734629.74,4775334.15],[734700.89,4775554.49]]}},
{"type":"Feature","properties":{"block_id":"E1"},"geometry":{"type":"LineString","coordinates":[[734626.14,4775321.78],[734629.09,4775332.26]]}},
{"type":"Feature","properties":{"block_id":"E2"},"geometry":{"type":"LineString","coordinates":[[734620.71,4775307.81],[734604.36,4775313.16]]}},
{"type":"Feature","properties":{"block_id":"R1"},"geometry":{"type":"LineString","coordinates":[[734676.13,4775305.77],[734689.2,4775347.79]]}},
{"type":"Feature","properties":{"block_id":"R"},"geometry":{"type":"LineString","coordinates":[[734697.99,4775350.21],[734766.33,4775565.51]]}},
{"type":"Feature","properties":{"block_id":"P"},"geometry":{"type":"LineString","coordinates":[[734547.23,4775210.83],[734536.7,4775215.55]]}},
{"type":"Feature","properties":{"block_id":"F"},"geometry":{"type":"LineString","coordinates":[[734531.73,4775202.43],[734532.67,4775224.84]]}},
{"type":"Feature","properties":{"block_id":"A3"},"geometry":{"type":"LineString","coordinates":[[734523.51,4774984.04],[734554.14,4775078.15]]}},
{"type":"Feature","properties":{"block_id":"A2"},"geometry":{"type":"LineString","coordinates":[[734508.35,4774950.15],[734515.21,4774973.56]]}},
{"type":"Feature","properties":{"block_id":"A1"},"geometry":{"type":"LineString","coordinates":[[734500.5,4774925.95],[734503.8,4774937.78]]}},
{"type":"Feature","properties":{"block_id":"B"},"geometry":{"type":"LineString","coordinates":[[734449.53,4774935.22],[734520.48,4775155.19]]}},
{"type":"Feature","properties":{"block_id":"C3"},"geometry":{"type":"LineString","coordinates":[[734444.71,4775103.81],[734456.85,4775141.72]]}},
{"type":"Feature","properties":{"block_id":"C2"},"geometry":{"type":"LineString","coordinates":[[734409.41,4775000.04],[734429.58,4775059.61]]}},
{"type":"Feature","properties":{"block_id":"C1"},"geometry":{"type":"LineString","coordinates":[[734393.06,4774952.51],[734401.46,4774978.84]]}}
]
}
