{
"type": "FeatureCollection",
"name": "berth",
"crs": { "type": "name", "properties": { "name": "urn:ogc:def:crs:EPSG::32652" } },
"xy_coordinate_resolution": 0.01,
"features": [
{"type":"Feature","properties":{"fid":1,"berth_id":"53","name":"Причал 53"},"geometry":{"type":"LineString","coordinates":[[734361.84,4774968.97],[734376.8,4775014.52]]}},
{"type":"Feature","properties":{"fid":2,"berth_id":"52","name":"Причал 52"},"geometry":{"type":"LineString","coordinates":[[734418.24,4775138.28],[734432.46,4775180.55]]}},
{"type":"Feature","properties":{"fid":3,"berth_id":"51","name":"Причал 51"},"geometry":{"type":"LineString","coordinates":[[734486.45,4775238.98],[734509.87,4775256.02]]}},
{"type":"Feature","properties":{"fid":4,"berth_id":"50-2","name":"Причал 50-2"},"geometry":{"type":"LineString","coordinates":[[734555.49,4775361.54],[734572.98,4775414.01]]}},
{"type":"Feature","properties":{"fid":5,"berth_id":"50","name":"Причал 50"},"geometry":{"type":"LineString","coordinates":[[734585.1,4775450.38],[734604.43,4775508.37]]}},
{"type":"Feature","properties":{"fid":6,"berth_id":"50-1","name":"Причал 50-1"},"geometry":{"type":"LineString","coordinates":[[734610.76,4775527.37],[734625.85,4775572.62]]}}
]
}
