{
"type": "FeatureCollection",
"name": "block_origins",
"crs": { "type": "name", "properties": { "name": "urn:ogc:def:crs:EPSG::32652" } },
"xy_coordinate_resolution": 0.01,
"features": [
{"type":"Feature","properties":{"block_id":"MR-1"},"geometry":{"type":"Point","coordinates":[734663.19,4776055.24]}},
{"type":"Feature","properties":{"block_id":"MR-2"},"geometry":{"type":"Point","coordinates":[734746.86,4776116.58]}},
{"type":"Feature","properties":{"block_id":"PR"},"geometry":{"type":"Point","coordinates":[734677.51,4776019.55]}},
{"type":"Feature","properties":{"block_id":"BR"},"geometry":{"type":"Point","coordinates":[734745.82,4776019.29]}},
{"type":"Feature","properties":{"block_id":"O-2"},"geometry":{"type":"Point","coordinates":[734930.09,4776095.94]}},
{"type":"Feature","properties":{"block_id":"O-1"},"geometry":{"type":"Point","coordinates":[734922.68,4776104.22]}},
{"type":"Feature","properties":{"block_id":"LM"},"geometry":{"type":"Point","coordinates":[735032.2,4776290.62]}},
{"type":"Feature","properties":{"block_id":"L"},"geometry":{"type":"Point","coordinates":[735211.27,4776335.31]}},
{"type":"Feature","properties":{"block_id":"N"},"geometry":{"type":"Point","coordinates":[734606.41,4775805.75]}},
{"type":"Feature","properties":{"block_id":"Y"},"geometry":{"type":"Point","coordinates":[734660.07,4775744.51]}},
{"type":"Feature","properties":{"block_id":"J"},"geometry":{"type":"Point","coordinates":[734678.45,4775754.8]}},
{"type":"Feature","properties":{"block_id":"RF-1"},"geometry":{"type":"Point","coordinates":[734748.39,4775719.68]}},
{"type":"Feature","properties":{"block_id":"S"},"geometry":{"type":"Point","coordinates":[734715.34,4775663.1]}},
{"type":"Feature","properties":{"block_id":"Q"},"geometry":{"type":"Point","coordinates":[734700.4,4775611.56]}},
{"type":"Feature","properties":{"block_id":"RF-2"},"geometry":{"type":"Point","coordinates":[734760.15,4775658.62]}},
{"type":"Feature","properties":{"block_id":"R2"},"geometry":{"type":"Point","coordinates":[734768.53,4775580.64]}},
{"type":"Feature","properties":{"block_id":"T4"},"geometry":{"type":"Point","coordinates":[734650.36,4775534.63]}},
{"type":"Feature","properties":{"block_id":"T3"},"geometry":{"type":"Point","coordinates":[734628.13,4775467.59]}},
{"type":"Feature","properties":{"block_id":"R"},"geometry":{"type":"Point","coordinates":[734697.99,4775350.21]}},
{"type":"Feature","properties":{"block_id":"X"},"geometry":{"type":"Point","coordinates":[734629.74,4775334.15]}},
{"type":"Feature","properties":{"block_id":"R1"},"geometry":{"type":"Point","coordinates":[734676.13,4775305.77]}},
{"type":"Feature","properties":{"block_id":"E1"},"geometry":{"type":"Point","coordinates":[734626.14,4775321.78]}},
{"type":"Feature","properties":{"block_id":"E2"},"geometry":{"type":"Point","coordinates":[734620.71,4775307.81]}},
{"type":"Feature","properties":{"block_id":"T1"},"geometry":{"type":"Point","coordinates":[734568.75,4775283.1]}},
{"type":"Feature","properties":{"block_id":"T2"},"geometry":{"type":"Point","coordinates":[734593.78,4775361.34]}},
{"type":"Feature","properties":{"block_id":"P"},"geometry":{"type":"Point","coordinates":[734547.23,4775210.83]}},
{"type":"Feature","properties":{"block_id":"F"},"geometry":{"type":"Point","coordinates":[734531.73,4775202.43]}},
{"type":"Feature","properties":{"block_id":"C3"},"geometry":{"type":"Point","coordinates":[734444.71,4775103.81]}},
{"type":"Feature","properties":{"block_id":"C2"},"geometry":{"type":"Point","coordinates":[734409.41,4775000.04]}},
{"type":"Feature","properties":{"block_id":"A3"},"geometry":{"type":"Point","coordinates":[734523.51,4774984.04]}},
{"type":"Feature","properties":{"block_id":"A2"},"geometry":{"type":"Point","coordinates":[734508.35,4774950.15]}},
{"type":"Feature","properties":{"block_id":"A1"},"geometry":{"type":"Point","coordinates":[734500.69,4774926.25]}},
{"type":"Feature","properties":{"block_id":"B"},"geometry":{"type":"Point","coordinates":[734449.53,4774935.22]}},
{"type":"Feature","properties":{"block_id":"C1"},"geometry":{"type":"Point","coordinates":[734393.06,4774952.51]}},
{"type":"Feature","properties":{"block_id":"MR-1"},"geometry":{"type":"Point","coordinates":[734663.19,4776055.24]}},
{"type":"Feature","properties":{"block_id":"MR-2"},"geometry":{"type":"Point","coordinates":[734746.86,4776116.58]}},
{"type":"Feature","properties":{"block_id":"PR"},"geometry":{"type":"Point","coordinates":[734677.51,4776019.55]}},
{"type":"Feature","properties":{"block_id":"BR"},"geometry":{"type":"Point","coordinates":[734745.82,4776019.29]}},
{"type":"Feature","properties":{"block_id":"O-2"},"geometry":{"type":"Point","coordinates":[734930.09,4776095.94]}},
{"type":"Feature","properties":{"block_id":"O-1"},"geometry":{"type":"Point","coordinates":[734922.68,4776104.22]}},
{"type":"Feature","properties":{"block_id":"LM"},"geometry":{"type":"Point","coordinates":[735032.2,4776290.62]}},
{"type":"Feature","properties":{"block_id":"L"},"geometry":{"type":"Point","coordinates":[735211.27,4776335.31]}}
]
}
