{
  "type": "FeatureCollection",
  "name": "container_site_bay_axes_v4",
  "crs": {
    "type": "name",
    "properties": {
      "name": "urn:ogc:def:crs:EPSG::32652"
    }
  },
  "xy_coordinate_resolution": 0.01,
  "features": [
    {
      "type": "Feature",
      "properties": {
        "fid": 1,
        "site_id": "kpC"
      },
      "geometry": {
        "type": "LineString",
        "coordinates": [
          [
            734431.69,
            4775149.66
          ],
          [
            734353.85,
            4774912.3
          ]
        ]
      }
    },
    {
      "type": "Feature",
      "properties": {
        "fid": 2,
        "site_id": "kpB"
      },
      "geometry": {
        "type": "LineString",
        "coordinates": [
          [
            734492.54,
            4775170.2
          ],
          [
            734396.7,
            4774873.7
          ]
        ]
      }
    },
    {
      "type": "Feature",
      "properties": {
        "fid": 3,
        "site_id": "kpAD"
      },
      "geometry": {
        "type": "LineString",
        "coordinates": [
          [
            734565.46,
            4775105.81
          ],
          [
            734503.73,
            4774912.42
          ]
        ]
      }
    },
    {
      "type": "Feature",
      "properties": {
        "fid": 4,
        "site_id": "kpF"
      },
      "geometry": {
        "type": "LineString",
        "coordinates": [
          [
            734532.84,
            4775225.03
          ],
          [
            734532.02,
            4775200.24
          ]
        ]
      }
    },
    {
      "type": "Feature",
      "properties": {
        "fid": 5,
        "site_id": "kpP"
      },
      "geometry": {
        "type": "LineString",
        "coordinates": [
          [
            734545.4,
            4775232.97
          ],
          [
            734556.48,
            4775227.4
          ]
        ]
      }
    },
    {
      "type": "Feature",
      "properties": {
        "fid": 6,
        "site_id": "kpT"
      },
      "geometry": {
        "type": "LineString",
        "coordinates": [
          [
            734642.14,
            4775572.23
          ],
          [
            734557.98,
            4775314.0
          ]
        ]
      }
    },
    {
      "type": "Feature",
      "properties": {
        "fid": 7,
        "site_id": "kpX"
      },
      "geometry": {
        "type": "LineString",
        "coordinates": [
          [
            734707.98,
            4775573.15
          ],
          [
            734632.04,
            4775334.96
          ]
        ]
      }
    },
    {
      "type": "Feature",
      "properties": {
        "fid": 8,
        "site_id": "kpR1"
      },
      "geometry": {
        "type": "LineString",
        "coordinates": [
          [
            734764.63,
            4775647.28
          ],
          [
            734768.61,
            4775579.2
          ]
        ]
      }
    },
    {
      "type": "Feature",
      "properties": {
        "fid": 9,
        "site_id": "kpR2"
      },
      "geometry": {
        "type": "LineString",
        "coordinates": [
          [
            734766.88,
            4775565.48
          ],
          [
            734706.25,
            4775376.57
          ]
        ]
      }
    },
    {
      "type": "Feature",
      "properties": {
        "fid": 10,
        "site_id": "kpR3"
      },
      "geometry": {
        "type": "LineString",
        "coordinates": [
          [
            734688.97,
            4775349.12
          ],
          [
            734675.8,
            4775307.77
          ]
        ]
      }
    },
    {
      "type": "Feature",
      "properties": {
        "fid": 11,
        "site_id": "kpE1"
      },
      "geometry": {
        "type": "LineString",
        "coordinates": [
          [
            734628.18,
            4775327.77
          ],
          [
            734624.83,
            4775315.83
          ]
        ]
      }
    },
    {
      "type": "Feature",
      "properties": {
        "fid": 12,
        "site_id": "kpE2"
      },
      "geometry": {
        "type": "LineString",
        "coordinates": [
          [
            734606.6,
            4775319.08
          ],
          [
            734624.4,
            4775313.68
          ]
        ]
      }
    }
  ]
}
