{
"type": "FeatureCollection",
"name": "port_boundary",
"crs": { "type": "name", "properties": { "name": "urn:ogc:def:crs:EPSG::32652" } },
"xy_coordinate_resolution": 0.01,
"features": [
{"type":"Feature","properties":{"fid":1,"id":"border","color":"#be00ff","width_m":1.0},"geometry":{"type":"LineString","coordinates":[[735347.65,4776354.68],[735246.36,4776252.59],[735212.1,4776221.03],[735203.04,4776209.78],[735170.57,4776185.37],[735142.29,4776169.59],[735134.86,4776166.01],[735127.65,4776147.73],[735133.32,4776123.77],[735123.67,4776116.96],[735113.18,4776109.92],[735109.38,4776115.08],[735095.81,4776111.34],[735075.74,4776102.54],[735063.42,4776104.07],[735029.5,4776097.43],[735004.59,4776087.83],[734996.98,4776085.9],[734947.94,4776059.56],[734936.48,4776055.53],[734899.93,4776037.41],[734895.11,4776041.28],[734874.07,4776029.41],[734871.35,4776032.48],[734848.37,4776016.01],[734827.36,4775999.43],[734815.92,4775989.89],[734803.6,4775978.25],[734785.5,4775957.42],[734777.21,4775945.38],[734768.58,4775930.62],[734763.19,4775918.41],[734757.02,4775902.4],[734754.12,4775894.62],[734749.41,4775873.73],[734748.22,4775865.27],[734761.22,4775860.9],[734768.2,4775856.81],[734770.87,4775831.26],[734773.71,4775813.66],[734775.01,4775811.62],[734776.43,4775804.64],[734778.59,4775804.86],[734787.85,4775740.59],[734778.7,4775726.29],[734779.22,4775721.52],[734776.49,4775708.4],[734776.94,4775703.29],[734779.1,4775703.29],[734790.0,4775644.81],[734821.23,4775632.21],[734827.59,4775591.1],[734825.32,4775588.15],[734828.5,4775577.93],[734832.36,4775570.21],[734826.23,4775537.73],[734820.78,4775524.56],[734795.34,4775458.25],[734793.07,4775456.2],[734778.76,4775421.91],[734775.81,4775420.32],[734752.42,4775415.78],[734744.92,4775411.24],[734722.89,4775378.99],[734711.99,4775353.33],[734703.14,4775336.41],[734678.84,4775308.7],[734653.97,4775279.63],[734660.33,4775274.18],[734652.15,4775257.15],[734640.91,4775253.18],[734623.42,4775229.33],[734620.7,4775223.88],[734617.18,4775220.81],[734614.79,4775205.71],[734613.26,4775196.51],[734619.62,4775183.34],[734618.94,4775178.57],[734613.03,4775179.94],[734609.85,4775186.41],[734597.14,4775179.71],[734577.04,4775124.98],[734580.79,4775117.71],[734575.93,4775107.38],[734587.85,4775102.49],[734578.88,4775082.51],[734580.93,4775081.26],[734579.0,4775075.92],[734574.57,4775071.15],[734563.78,4775042.31],[734555.83,4775036.98],[734552.77,4775015.74],[734544.36,4775006.09],[734532.44,4774973.73],[734519.27,4774943.86],[734489.77,4774874.48],[734457.64,4774823.95]]}}
]
}
