{
"type": "FeatureCollection",
"name": "railway_branches_v4",
"crs": { "type": "name", "properties": { "name": "urn:ogc:def:crs:EPSG::32652" } },
"xy_coordinate_resolution": 0.01,
"features": [
{"type":"Feature","properties":{"fid":1,"branch_id":"1_52","name":"1-52","gauge_m":null,"color":null},"geometry":{"type":"LineString","coordinates":[[734339.94,4774886.86],[734428.7,4775148.01]]}},
{"type":"Feature","properties":{"fid":2,"branch_id":"4_52","name":"4_52","gauge_m":null,"color":null},"geometry":{"type":"LineString","coordinates":[[734458.97,4774948.42],[734524.81,4775150.88]]}},
{"type":"Feature","properties":{"fid":3,"branch_id":"5_52","name":"5_52","gauge_m":null,"color":null},"geometry":{"type":"LineString","coordinates":[[734462.85,4774947.19],[734525.02,4775142.9]]}},
{"type":"Feature","properties":{"fid":4,"branch_id":"4_49а","name":"4_49-50","gauge_m":null,"color":null},"geometry":{"type":"LineString","coordinates":[[734536.61,4775181.83],[734542.54,4775190.52],[734561.46,4775216.29],[734576.8,4775237.56],[734596.98,4775264.97],[734609.29,4775281.04],[734615.47,4775291.09],[734621.04,4775301.03],[734626.83,4775313.0],[734630.79,4775323.91],[734638.4,4775346.45],[734648.67,4775377.39],[734681.7,4775477.94],[734689.2,4775501.19],[734706.16,4775553.73],[734707.95,4775561.16],[734709.62,4775568.1],[734711.15,4775579.51],[734711.67,4775585.19],[734711.21,4775590.64],[734709.96,4775598.53],[734703.94,4775617.55],[734694.35,4775647.18],[734687.24,4775668.82],[734665.47,4775735.0],[734656.93,4775760.96],[734653.36,4775774.25],[734651.09,4775786.51],[734650.24,4775801.12],[734649.44,4775815.01],[734650.86,4775825.86],[734653.24,4775839.37]]}},
{"type":"Feature","properties":{"fid":5,"branch_id":"1_50","name":"1_50","gauge_m":null,"color":null},"geometry":{"type":"LineString","coordinates":[[734551.37,4775317.91],[734565.5,4775360.28],[734575.3,4775389.65],[734582.03,4775409.84],[734591.91,4775439.02],[734604.39,4775476.85],[734617.71,4775517.22],[734631.27,4775560.75],[734635.29,4775577.9],[734636.08,4775587.55],[734634.95,4775598.68],[734627.32,4775622.9],[734622.51,4775638.15]]}},
{"type":"Feature","properties":{"fid":6,"branch_id":"5_50","name":"5_50","gauge_m":null,"color":null},"geometry":{"type":"LineString","coordinates":[[734549.03,4775297.08],[734557.91,4775323.22],[734569.92,4775359.27],[734578.14,4775383.78],[734587.46,4775411.63],[734597.76,4775442.72],[734607.63,4775472.62],[734619.62,4775509.09],[734623.99,4775522.39],[734630.68,4775544.11],[734635.49,4775559.83],[734639.6,4775574.46],[734641.35,4775585.79],[734642.08,4775598.63],[734641.26,4775611.56],[734638.96,4775621.74],[734634.13,4775636.67],[734628.51,4775653.52],[734620.24,4775677.06],[734616.02,4775688.97]]}},
{"type":"Feature","properties":{"fid":7,"branch_id":"2_45","name":"2_45","gauge_m":null,"color":null},"geometry":{"type":"LineString","coordinates":[[734965.1,4776305.69],[735022.4,4776354.45],[735064.23,4776389.91],[735112.54,4776429.66]]}},
{"type":"Feature","properties":{"fid":8,"branch_id":"1_45_46","name":"1_45_46","gauge_m":null,"color":null},"geometry":{"type":"LineString","coordinates":[[734923.27,4776290.73],[734971.06,4776331.23],[735028.04,4776379.25],[735069.13,4776413.29]]}},
{"type":"Feature","properties":{"fid":9,"branch_id":"3_45","name":"3_45","gauge_m":null,"color":null},"geometry":{"type":"LineString","coordinates":[[735008.42,4776265.63],[735051.2,4776301.75],[735093.61,4776337.35],[735135.92,4776372.89],[735150.27,4776383.28]]}},
{"type":"Feature","properties":{"fid":11,"branch_id":"1_В","name":"1 выст.","gauge_m":null,"color":null},"geometry":{"type":"LineString","coordinates":[[735024.38,4776270.81],[735072.87,4776311.6],[735077.16,4776315.2],[735104.75,4776338.44],[735128.0,4776358.01],[735156.93,4776382.2]]}},
{"type":"Feature","properties":{"fid":12,"branch_id":"3_47","name":"3_47","gauge_m":null,"color":null},"geometry":{"type":"LineString","coordinates":[[734711.26,4776041.24],[734750.02,4776068.65],[734780.62,4776090.38],[734810.0,4776111.22]]}},
{"type":"Feature","properties":{"fid":13,"branch_id":"2_В","name":"2 выст.","gauge_m":null,"color":null},"geometry":{"type":"LineString","coordinates":[[734778.46,4776083.49],[734855.43,4776138.61],[734949.42,4776205.78],[734987.65,4776233.9],[735016.95,4776258.2],[735052.01,4776287.72],[735097.74,4776326.45],[735148.92,4776369.71]]}},
{"type":"Feature","properties":{"fid":14,"branch_id":"3_В","name":"3 выст.","gauge_m":null,"color":null},"geometry":{"type":"LineString","coordinates":[[734976.15,4776218.95],[735014.22,4776249.46],[735094.33,4776317.48],[735139.72,4776355.63]]}},
{"type":"Feature","properties":{"fid":15,"branch_id":"4_В","name":"4 выст.","gauge_m":null,"color":null},"geometry":{"type":"LineString","coordinates":[[735005.99,4776228.22],[735038.35,4776256.04],[735102.25,4776310.32],[735139.21,4776341.09]]}},
{"type":"Feature","properties":{"fid":16,"branch_id":"5_В","name":"5 выст.","gauge_m":null,"color":null},"geometry":{"type":"LineString","coordinates":[[734869.87,4776101.62],[734894.14,4776122.17],[734928.55,4776153.85],[734971.9,4776192.23],[735005.25,4776221.07],[735075.4,4776281.03],[735151.79,4776346.32]]}},
{"type":"Feature","properties":{"fid":17,"branch_id":"6_В","name":"6 выст.","gauge_m":null,"color":null},"geometry":{"type":"LineString","coordinates":[[734860.68,4776088.27],[734888.27,4776111.04],[734908.8,4776129.38],[734931.09,4776149.29],[734942.43,4776159.41],[734944.31,4776161.15],[734964.45,4776179.68],[734973.77,4776188.25],[734981.71,4776195.06],[735006.36,4776216.19],[735030.6,4776237.21],[735058.01,4776260.96],[735062.42,4776264.79],[735085.42,4776284.19],[735116.64,4776310.55],[735145.0,4776334.28],[735161.92,4776349.04],[735181.11,4776365.47]]}},
{"type":"Feature","properties":{"fid":18,"branch_id":"7_В","name":"7 выст.","gauge_m":null,"color":null},"geometry":{"type":"LineString","coordinates":[[734989.65,4776193.27],[735079.27,4776270.09],[735140.23,4776323.57],[735151.36,4776334.93],[735169.04,4776353.07]]}},
{"type":"Feature","properties":{"fid":19,"branch_id":"8_В","name":"8 выст.","gauge_m":null,"color":null},"geometry":{"type":"LineString","coordinates":[[734955.95,4776159.93],[734993.53,4776191.9],[735141.13,4776317.31],[735187.59,4776360.38],[735191.77,4776365.34]]}},
{"type":"Feature","properties":{"fid":20,"branch_id":"1_47-49","name":"1_47-49","gauge_m":null,"color":null},"geometry":{"type":"LineString","coordinates":[[734783.47,4776185.38],[734821.6,4776218.54],[734852.82,4776244.77],[734907.3,4776291.1],[734955.76,4776331.41],[735018.64,4776384.32],[735038.37,4776401.01],[735049.38,4776408.51],[735063.46,4776416.0]]}}
]
}
